HULIANWANG DIGUI-121    
1 67061U 25295C   25356.93731900 -.00000221  00000+0 -26084-4 0  9996
2 67061  50.0023 329.1789 0013398 281.6544  78.2866 14.25038892  1577
HULIANWANG DIGUI-122    
1 67062U 25295D   25356.93614652  .00000015  00000+0  73096-4 0  9995
2 67062  50.0052 329.1825 0013166 289.2560  70.6929 14.25757146  1572
HULIANWANG DIGUI-123    
1 67063U 25295E   25356.93512914  .00000016  00000+0  73682-4 0  9996
2 67063  50.0059 329.1797 0012476 288.4830  71.4728 14.25889962  1570
HULIANWANG DIGUI-124    
1 67064U 25295F   25356.23385528 -.00000684  00000+0 -21790-3 0  9994
2 67064  50.0035 332.1235 0012142 280.5756  79.3790 14.25948838  1479
HULIANWANG DIGUI-125    
1 67065U 25295G   25356.93462760  .00000016  00000+0  73372-4 0  9997
2 67065  50.0009 329.1606 0012266 289.1982  70.7604 14.25955589  1573
HULIANWANG DIGUI-126    
1 67066U 25295H   25356.93351366  .00000011  00000+0  71163-4 0  9998
2 67066  50.0012 329.1539 0011428 286.3362  73.6295 14.26098521  1576
HULIANWANG DIGUI-127    
1 67067U 25295J   25356.65216912 -.00000825  00000+0 -27535-3 0  9993
2 67067  50.0053 330.3407 0010850 289.3117  70.6623 14.26251195  1535
CZ-12 R/B               
1 67068U 25295K   25356.95854499 -.00000134  00000+0  10465-4 0  9992
2 67068  49.9942 327.9580 0056869 172.5310 187.6470 14.41129148  1585
XIWANG-5 02             
1 67069U 25296A   25356.84209676  .00012023  00000+0  60664-3 0  9997
2 67069  41.3523  43.9499 0014547  98.1351 262.1121 15.16874513  1494
DEAR-5                  
1 67070U 25296B   25356.84123306  .00004972  00000+0  25683-3 0  9990
2 67070  41.3552  43.9459 0016118  99.4562 260.8082 15.16903887  1485
KZ-11 R/B               
1 67071U 25296C   25356.59707811  .08085331  71631-5  47260-3 0  9997
2 67071  41.3101  47.6253 0460166  22.6091 339.4322 15.40866128  1427
ELECTRON R/B            
1 67072U 25297A   25356.86215618  .04330228  21818-5  11302-2 0  9991
2 67072  97.4524 145.1987 0118846 196.5335 163.2062 16.12797911  1397
