CCSDS_OMM_VERS = 2.0
CREATION_DATE  = 
ORIGINATOR     = 

OBJECT_NAME    = HULIANWANG DIGUI-121
OBJECT_ID      = 2025-295C
CENTER_NAME    = EARTH
REF_FRAME      = TEME
TIME_SYSTEM    = UTC
MEAN_ELEMENT_THEORY = SGP/SGP4

EPOCH          = 2025-12-22T22:29:44.361600
MEAN_MOTION    = 14.25038892
ECCENTRICITY   = .00133982
INCLINATION    = 50.0023
RA_OF_ASC_NODE = 329.1789
ARG_OF_PERICENTER = 281.6544
MEAN_ANOMALY   = 78.2866

EPHEMERIS_TYPE = 0
CLASSIFICATION_TYPE = U
NORAD_CAT_ID   = 67061
ELEMENT_SET_NO = 999
REV_AT_EPOCH   = 157
BSTAR          = -.26083521E-4
MEAN_MOTION_DOT = -.221E-5
MEAN_MOTION_DDOT = 0

CCSDS_OMM_VERS = 2.0
CREATION_DATE  = 
ORIGINATOR     = 

OBJECT_NAME    = HULIANWANG DIGUI-122
OBJECT_ID      = 2025-295D
CENTER_NAME    = EARTH
REF_FRAME      = TEME
TIME_SYSTEM    = UTC
MEAN_ELEMENT_THEORY = SGP/SGP4

EPOCH          = 2025-12-22T22:28:03.059328
MEAN_MOTION    = 14.25757146
ECCENTRICITY   = .00131668
INCLINATION    = 50.0052
RA_OF_ASC_NODE = 329.1825
ARG_OF_PERICENTER = 289.2560
MEAN_ANOMALY   = 70.6929

EPHEMERIS_TYPE = 0
CLASSIFICATION_TYPE = U
NORAD_CAT_ID   = 67062
ELEMENT_SET_NO = 999
REV_AT_EPOCH   = 157
BSTAR          = .73096224E-4
MEAN_MOTION_DOT = .15E-6
MEAN_MOTION_DDOT = 0

CCSDS_OMM_VERS = 2.0
CREATION_DATE  = 
ORIGINATOR     = 

OBJECT_NAME    = HULIANWANG DIGUI-123
OBJECT_ID      = 2025-295E
CENTER_NAME    = EARTH
REF_FRAME      = TEME
TIME_SYSTEM    = UTC
MEAN_ELEMENT_THEORY = SGP/SGP4

EPOCH          = 2025-12-22T22:26:35.157696
MEAN_MOTION    = 14.25889962
ECCENTRICITY   = .00124769
INCLINATION    = 50.0059
RA_OF_ASC_NODE = 329.1797
ARG_OF_PERICENTER = 288.4830
MEAN_ANOMALY   = 71.4728

EPHEMERIS_TYPE = 0
CLASSIFICATION_TYPE = U
NORAD_CAT_ID   = 67063
ELEMENT_SET_NO = 999
REV_AT_EPOCH   = 157
BSTAR          = .73681631E-4
MEAN_MOTION_DOT = .16E-6
MEAN_MOTION_DDOT = 0

CCSDS_OMM_VERS = 2.0
CREATION_DATE  = 
ORIGINATOR     = 

OBJECT_NAME    = HULIANWANG DIGUI-124
OBJECT_ID      = 2025-295F
CENTER_NAME    = EARTH
REF_FRAME      = TEME
TIME_SYSTEM    = UTC
MEAN_ELEMENT_THEORY = SGP/SGP4

EPOCH          = 2025-12-22T05:36:45.096192
MEAN_MOTION    = 14.25948838
ECCENTRICITY   = .00121422
INCLINATION    = 50.0035
RA_OF_ASC_NODE = 332.1235
ARG_OF_PERICENTER = 280.5756
MEAN_ANOMALY   = 79.3790

EPHEMERIS_TYPE = 0
CLASSIFICATION_TYPE = U
NORAD_CAT_ID   = 67064
ELEMENT_SET_NO = 999
REV_AT_EPOCH   = 147
BSTAR          = -.21789546E-3
MEAN_MOTION_DOT = -.684E-5
MEAN_MOTION_DDOT = 0

CCSDS_OMM_VERS = 2.0
CREATION_DATE  = 
ORIGINATOR     = 

OBJECT_NAME    = HULIANWANG DIGUI-125
OBJECT_ID      = 2025-295G
CENTER_NAME    = EARTH
REF_FRAME      = TEME
TIME_SYSTEM    = UTC
MEAN_ELEMENT_THEORY = SGP/SGP4

EPOCH          = 2025-12-22T22:25:51.824640
MEAN_MOTION    = 14.25955589
ECCENTRICITY   = .00122661
INCLINATION    = 50.0009
RA_OF_ASC_NODE = 329.1606
ARG_OF_PERICENTER = 289.1982
MEAN_ANOMALY   = 70.7604

EPHEMERIS_TYPE = 0
CLASSIFICATION_TYPE = U
NORAD_CAT_ID   = 67065
ELEMENT_SET_NO = 999
REV_AT_EPOCH   = 157
BSTAR          = .73371947E-4
MEAN_MOTION_DOT = .16E-6
MEAN_MOTION_DDOT = 0

CCSDS_OMM_VERS = 2.0
CREATION_DATE  = 
ORIGINATOR     = 

OBJECT_NAME    = HULIANWANG DIGUI-126
OBJECT_ID      = 2025-295H
CENTER_NAME    = EARTH
REF_FRAME      = TEME
TIME_SYSTEM    = UTC
MEAN_ELEMENT_THEORY = SGP/SGP4

EPOCH          = 2025-12-22T22:24:15.580224
MEAN_MOTION    = 14.26098521
ECCENTRICITY   = .00114282
INCLINATION    = 50.0012
RA_OF_ASC_NODE = 329.1539
ARG_OF_PERICENTER = 286.3362
MEAN_ANOMALY   = 73.6295

EPHEMERIS_TYPE = 0
CLASSIFICATION_TYPE = U
NORAD_CAT_ID   = 67066
ELEMENT_SET_NO = 999
REV_AT_EPOCH   = 157
BSTAR          = .7116293E-4
MEAN_MOTION_DOT = .11E-6
MEAN_MOTION_DDOT = 0

CCSDS_OMM_VERS = 2.0
CREATION_DATE  = 
ORIGINATOR     = 

OBJECT_NAME    = HULIANWANG DIGUI-127
OBJECT_ID      = 2025-295J
CENTER_NAME    = EARTH
REF_FRAME      = TEME
TIME_SYSTEM    = UTC
MEAN_ELEMENT_THEORY = SGP/SGP4

EPOCH          = 2025-12-22T15:39:07.411968
MEAN_MOTION    = 14.26251195
ECCENTRICITY   = .00108509
INCLINATION    = 50.0053
RA_OF_ASC_NODE = 330.3407
ARG_OF_PERICENTER = 289.3117
MEAN_ANOMALY   = 70.6623

EPHEMERIS_TYPE = 0
CLASSIFICATION_TYPE = U
NORAD_CAT_ID   = 67067
ELEMENT_SET_NO = 999
REV_AT_EPOCH   = 153
BSTAR          = -.27534515E-3
MEAN_MOTION_DOT = -.825E-5
MEAN_MOTION_DDOT = 0

CCSDS_OMM_VERS = 2.0
CREATION_DATE  = 
ORIGINATOR     = 

OBJECT_NAME    = CZ-12 R/B
OBJECT_ID      = 2025-295K
CENTER_NAME    = EARTH
REF_FRAME      = TEME
TIME_SYSTEM    = UTC
MEAN_ELEMENT_THEORY = SGP/SGP4

EPOCH          = 2025-12-22T23:00:18.287136
MEAN_MOTION    = 14.41129148
ECCENTRICITY   = .00568695
INCLINATION    = 49.9942
RA_OF_ASC_NODE = 327.9580
ARG_OF_PERICENTER = 172.5310
MEAN_ANOMALY   = 187.6470

EPHEMERIS_TYPE = 0
CLASSIFICATION_TYPE = U
NORAD_CAT_ID   = 67068
ELEMENT_SET_NO = 999
REV_AT_EPOCH   = 158
BSTAR          = .10465319E-4
MEAN_MOTION_DOT = -.134E-5
MEAN_MOTION_DDOT = 0

CCSDS_OMM_VERS = 2.0
CREATION_DATE  = 
ORIGINATOR     = 

OBJECT_NAME    = XIWANG-5 02
OBJECT_ID      = 2025-296A
CENTER_NAME    = EARTH
REF_FRAME      = TEME
TIME_SYSTEM    = UTC
MEAN_ELEMENT_THEORY = SGP/SGP4

EPOCH          = 2025-12-22T20:12:37.160064
MEAN_MOTION    = 15.16874513
ECCENTRICITY   = .00145475
INCLINATION    = 41.3523
RA_OF_ASC_NODE = 43.9499
ARG_OF_PERICENTER = 98.1351
MEAN_ANOMALY   = 262.1121

EPHEMERIS_TYPE = 0
CLASSIFICATION_TYPE = U
NORAD_CAT_ID   = 67069
ELEMENT_SET_NO = 999
REV_AT_EPOCH   = 149
BSTAR          = .60663655E-3
MEAN_MOTION_DOT = .12023E-3
MEAN_MOTION_DDOT = 0

CCSDS_OMM_VERS = 2.0
CREATION_DATE  = 
ORIGINATOR     = 

OBJECT_NAME    = DEAR-5
OBJECT_ID      = 2025-296B
CENTER_NAME    = EARTH
REF_FRAME      = TEME
TIME_SYSTEM    = UTC
MEAN_ELEMENT_THEORY = SGP/SGP4

EPOCH          = 2025-12-22T20:11:22.536384
MEAN_MOTION    = 15.16903887
ECCENTRICITY   = .00161183
INCLINATION    = 41.3552
RA_OF_ASC_NODE = 43.9459
ARG_OF_PERICENTER = 99.4562
MEAN_ANOMALY   = 260.8082

EPHEMERIS_TYPE = 0
CLASSIFICATION_TYPE = U
NORAD_CAT_ID   = 67070
ELEMENT_SET_NO = 999
REV_AT_EPOCH   = 148
BSTAR          = .25683275E-3
MEAN_MOTION_DOT = .4972E-4
MEAN_MOTION_DDOT = 0

CCSDS_OMM_VERS = 2.0
CREATION_DATE  = 
ORIGINATOR     = 

OBJECT_NAME    = KZ-11 R/B
OBJECT_ID      = 2025-296C
CENTER_NAME    = EARTH
REF_FRAME      = TEME
TIME_SYSTEM    = UTC
MEAN_ELEMENT_THEORY = SGP/SGP4

EPOCH          = 2025-12-22T14:19:47.548704
MEAN_MOTION    = 15.40866128
ECCENTRICITY   = .04601667
INCLINATION    = 41.3101
RA_OF_ASC_NODE = 47.6253
ARG_OF_PERICENTER = 22.6091
MEAN_ANOMALY   = 339.4322

EPHEMERIS_TYPE = 0
CLASSIFICATION_TYPE = U
NORAD_CAT_ID   = 67071
ELEMENT_SET_NO = 999
REV_AT_EPOCH   = 142
BSTAR          = .47260137E-3
MEAN_MOTION_DOT = .8085331E-1
MEAN_MOTION_DDOT = .7163122E-5

CCSDS_OMM_VERS = 2.0
CREATION_DATE  = 
ORIGINATOR     = 

OBJECT_NAME    = ELECTRON R/B
OBJECT_ID      = 2025-297A
CENTER_NAME    = EARTH
REF_FRAME      = TEME
TIME_SYSTEM    = UTC
MEAN_ELEMENT_THEORY = SGP/SGP4

EPOCH          = 2025-12-22T20:41:30.293952
MEAN_MOTION    = 16.12797911
ECCENTRICITY   = .0118846
INCLINATION    = 97.4524
RA_OF_ASC_NODE = 145.1987
ARG_OF_PERICENTER = 196.5335
MEAN_ANOMALY   = 163.2062

EPHEMERIS_TYPE = 0
CLASSIFICATION_TYPE = U
NORAD_CAT_ID   = 67072
ELEMENT_SET_NO = 999
REV_AT_EPOCH   = 139
BSTAR          = .11302234E-2
MEAN_MOTION_DOT = .4330228E-1
MEAN_MOTION_DDOT = .2181796E-5

